OBJECT_NAME,OBJECT_ID,EPOCH,MEAN_MOTION,ECCENTRICITY,INCLINATION,RA_OF_ASC_NODE,ARG_OF_PERICENTER,MEAN_ANOMALY,EPHEMERIS_TYPE,CLASSIFICATION_TYPE,NORAD_CAT_ID,ELEMENT_SET_NO,REV_AT_EPOCH,BSTAR,MEAN_MOTION_DOT,MEAN_MOTION_DDOT
FLOCK 4BE-34,2024-149AD,2026-07-22T04:54:40.670496,15.42104054,.0005321,97.3768,287.9645,142.4699,217.6921,0,U,60495,999,10772,.4029926E-3,.17174E-3,0
TYCHE,2024-149AE,2026-07-22T13:08:54.212352,15.25818116,.00036202,97.3739,280.8859,148.0434,212.1025,0,U,60496,999,10729,.16488335E-3,.4144E-4,0
FLOCK 4BE-32,2024-149AF,2026-07-22T12:54:16.759008,15.43275706,.00053414,97.3707,287.8738,138.7534,221.4118,0,U,60497,999,10778,.44400936E-3,.19696E-3,0
NUSAT-48 (HENRIETTA LEAVITT),2024-149AG,2026-07-22T12:53:04.112160,15.29975045,.00048772,97.3905,284.8609,132.5731,227.5922,0,U,60498,999,10754,.30706332E-3,.8839E-4,0
FLOCK 4BE-30,2024-149AH,2026-07-22T11:57:51.520608,15.67320394,.00063652,97.3735,290.4756,201.8420,158.2570,0,U,60499,999,10728,.21909541E-2,.242282E-2,0
NUSAT-49 (KLARA DAN VON NEUMANN),2024-149AJ,2026-07-21T11:15:03.157920,15.29847650,.00032494,97.3772,283.5228,145.3637,214.7816,0,U,60500,999,10737,.79184532E-4,.2213E-4,0
FLOCK 4BE-11,2024-149AK,2026-07-22T04:33:29.385216,15.44056464,.00053747,97.3684,287.7848,139.1555,221.0097,0,U,60501,999,10775,.450604E-3,.20525E-3,0
YAM-7,2024-149AN,2026-07-22T04:42:50.604192,15.32248637,.00043479,97.3770,283.3120,148.7470,211.4031,0,U,60504,999,10741,.23041675E-3,.7098E-4,0
FLOCK 4BE-24,2024-149AP,2026-07-22T11:55:01.255584,15.44314690,.00055289,97.3697,288.3682,149.0508,211.1067,0,U,60505,999,10781,.49974555E-3,.22981E-3,0
LUR-1,2024-149AQ,2026-07-22T11:42:19.346688,15.30514016,.00046879,97.3722,282.0675,159.1727,200.9705,0,U,60506,999,10737,.23846098E-3,.6961E-4,0
TANAGER-1,2024-149AR,2026-07-22T12:54:14.484960,15.43942180,.00036004,97.2319,297.6298,123.9157,236.2434,0,U,60507,999,10849,.7611011E-5,.262E-5,0
EAGLEEYE,2024-149AS,2026-07-22T06:03:26.768160,15.78251976,.00043266,97.3704,298.7157,173.2310,186.9016,0,U,60508,999,10845,.84196517E-3,.146039E-2,0
FLOCK 4BE-29,2024-149AT,2026-07-22T11:31:53.804640,15.45938123,.00041639,97.3793,289.9210,158.9467,201.1954,0,U,60509,999,10786,.10376322E-2,.5069E-3,0
TRANSPORTER-11 OBJECT AU,2024-149AU,2026-07-22T04:40:36.648768,15.41117015,.00048368,97.3717,287.2160,148.0802,212.0738,0,U,60510,999,10770,.39431161E-3,.16257E-3,0
FLOCK 4BE-2,2024-149AV,2026-07-22T04:50:53.001312,15.56583896,.00053744,97.3818,291.5976,154.8830,205.2687,0,U,60511,999,10794,.10795358E-2,.77269E-3,0
FLOCK 4BE-13,2024-149AW,2026-07-22T04:34:11.052480,15.42752221,.00055044,97.3708,287.9859,135.7312,224.4377,0,U,60512,999,10776,.35691726E-3,.15532E-3,0
FLOCK 4BE-27,2024-149AX,2026-07-22T12:47:01.477536,15.35011802,.00046228,97.3815,285.4129,159.4506,200.6924,0,U,60513,999,10756,.29847473E-3,.10063E-3,0
FLOCK 4BE-9,2024-149AY,2026-07-22T12:54:11.703744,15.41794079,.00042022,97.3781,288.1755,151.9061,208.2413,0,U,60514,999,10776,.4252043E-3,.17938E-3,0
FLOCK 4BE-6,2024-149BA,2026-07-22T04:56:04.925184,15.40460710,.00048522,97.3775,287.1301,152.7998,207.3504,0,U,60516,999,10766,.40192489E-3,.16216E-3,0
FLOCK 4BE-14,2024-149BB,2026-07-22T05:17:22.490880,15.42022838,.00058517,97.3680,287.3157,155.5318,204.6208,0,U,60517,999,10772,.45600278E-3,.194E-3,0
FLOCK 4BE-1,2024-149BC,2026-07-22T04:46:51.934944,15.43687314,.0005523,97.3766,288.6990,155.2226,204.9288,0,U,60518,999,10777,.44960789E-3,.20225E-3,0
FLOCK 4BE-28,2024-149BD,2026-07-22T11:31:10.013664,15.46753398,.00056206,97.3732,289.8283,155.1494,205.0028,0,U,60519,999,10789,.98882687E-3,.49677E-3,0
IPERDRONE.0,2024-149BE,2026-07-22T12:03:36.546912,15.72127811,.00036629,97.3756,298.6014,151.1944,208.9522,0,U,60520,999,10845,.79282918E-3,.104973E-2,0
CONNECTA IOT-2,2024-149BG,2026-07-22T04:10:04.846080,15.24233740,.00062748,97.3825,280.7928,186.1986,173.9175,0,U,60522,999,10722,.16166604E-3,.3873E-4,0
CONNECTA IOT-4,2024-149BJ,2026-07-22T05:33:45.943200,15.43336200,.00065473,97.3783,288.0460,152.8392,207.3200,0,U,60524,999,10773,.4100752E-3,.18222E-3,0
ORESAT0.5,2024-149BK,2026-07-22T04:56:04.543296,15.46308638,.00066152,97.3712,289.7723,143.4014,216.7689,0,U,60525,999,10788,.45740765E-3,.2251E-3,0
DEIMOS,2024-149BL,2026-07-22T12:24:31.873248,15.45392350,.00065983,97.3770,290.2098,147.2658,212.9001,0,U,60526,999,10790,.45283519E-3,.21593E-3,0
CUAVA-2,2024-149BM,2026-07-22T04:27:12.539520,15.36850099,.00075626,97.3712,284.7808,156.9202,203.2384,0,U,60527,999,10754,.37067088E-3,.13289E-3,0
ERNST,2024-149BN,2026-07-22T04:48:59.212512,15.40022582,.00068227,97.3796,287.2025,156.3931,203.7630,0,U,60528,999,10766,.364974E-3,.14509E-3,0
TORO,2024-149BQ,2026-07-22T03:26:16.553760,14.96531660,.00013962,97.6768,277.1581,110.2753,249.8619,0,U,60530,999,10518,.14500539E-3,.1591E-4,0
HYPSO-2,2024-149BR,2026-07-22T10:46:35.145696,14.98953019,.00012865,97.6824,279.1987,96.3286,263.8084,0,U,60531,999,10533,.10514425E-3,.1214E-4,0
LEMU NGE,2024-149BS,2026-07-22T10:58:37.523136,14.95077799,.00005701,97.6828,277.7044,132.7804,227.3465,0,U,60532,999,10522,.10947788E-3,.1143E-4,0
LEMUR-2-STELLA,2024-149BT,2026-07-22T11:36:38.903904,15.12478360,.00015098,97.6725,286.1088,121.0521,239.0857,0,U,60533,999,10583,.68404124E-3,.11846E-3,0
SATELIOT_2,2024-149BU,2026-07-22T11:11:14.276544,14.96471589,.00011677,97.6810,277.7786,82.0890,278.0464,0,U,60534,999,10524,.11347373E-3,.1231E-4,0
NIGHTJAR,2024-149BV,2026-07-22T04:01:56.925408,14.99207418,.00027916,97.6851,279.3859,82.0200,278.1339,0,U,60535,999,14811,.25613265E-3,.3062E-4,0
LEMUR-2-MARHISYAM,2024-149BW,2026-07-22T05:06:28.564704,15.11867364,.00021285,97.6869,286.3201,58.8291,301.3148,0,U,60536,999,10577,.59472169E-3,.10114E-3,0
SATELIOT_4,2024-149BX,2026-07-22T11:16:33.958272,14.96773197,.00006161,97.6718,277.2853,266.1336,93.9815,0,U,60537,999,10525,.13553686E-3,.1493E-4,0
PICO-02A021,2024-149BY,2026-07-22T10:36:03.162528,15.03534783,.00040189,97.6720,281.9729,249.8610,110.2183,0,U,60538,999,10503,.38206568E-3,.5154E-4,0
ICEYE-X43,2024-149BZ,2026-07-22T04:33:57.803040,14.99781384,.00065968,97.6772,279.6846,318.5808,41.4915,0,U,60539,999,10536,.12303477E-3,.1462E-4,0
HAWK-10A,2024-149CA,2026-07-22T11:20:12.116544,14.96601941,.00023835,97.6875,278.7770,332.9712,27.1385,0,U,60540,999,10526,.99488616E-4,.1076E-4,0
UMBRA-09,2024-149CB,2026-07-22T12:26:22.768512,15.19007702,.00021338,97.6963,291.3535,187.6795,172.4407,0,U,60541,999,10608,.8170208E-3,.17056E-3,0
QPS-SAR-8 (AMATERU-IV),2024-149CC,2026-07-22T04:22:05.368512,15.04433924,.00028579,97.6638,282.0428,17.5872,342.5453,0,U,60542,999,10553,.34257082E-3,.4727E-4,0
ARCTIC WEATHER SATELLITE,2024-149CD,2026-07-22T11:34:20.099712,14.89811237,.00022633,97.6781,272.9357,34.7349,325.4016,0,U,60543,999,10455,.39814652E-4,.329E-5,0
CAPELLA-15 (ACADIA-5),2024-149CE,2026-07-22T04:29:48.543360,14.92392787,.00027931,97.6752,275.2124,309.4682,50.6290,0,U,60544,999,10507,.29174654E-3,.2932E-4,0
HAWK-10B,2024-149CF,2026-07-22T04:54:53.918208,14.96600666,.00046391,97.6795,277.8336,349.7143,10.3983,0,U,60545,999,10522,.99813951E-4,.108E-4,0
ICEYE-X39,2024-149CG,2026-07-22T11:58:25.833504,15.00112458,.0006648,97.6804,280.0501,25.6510,334.5042,0,U,60546,999,10541,.25104435E-3,.3073E-4,0
UMBRA-10,2024-149CH,2026-07-22T12:25:44.011200,15.19006273,.0002062,97.6968,291.3836,154.5353,205.5983,0,U,60547,999,10609,.84914346E-3,.17731E-3,0
ICEYE-X33,2024-149CJ,2026-07-22T04:04:46.472448,15.00927945,.00018452,97.7381,282.1399,65.2412,294.9003,0,U,60548,999,10545,.28335812E-3,.355E-4,0
ICEYE-X40,2024-149CK,2026-07-22T04:05:17.095200,14.98112241,.00034904,97.6807,279.1050,343.0811,17.0294,0,U,60549,999,10531,.28128704E-3,.3273E-4,0
SATELIOT_1,2024-149CL,2026-07-22T03:48:43.163424,14.98185888,.00049679,97.6738,278.4744,331.3751,28.7198,0,U,60550,999,10530,.18320441E-3,.2116E-4,0
BRO-14,2024-149CM,2026-07-22T04:07:31.461888,14.96250974,.00061962,97.6862,278.3205,355.3315,4.7847,0,U,60551,999,10522,.8853553E-4,.942E-5,0
SATELIOT_3,2024-149CN,2026-07-22T04:50:14.375328,14.98176032,.00043517,97.6803,279.3417,335.2971,24.8043,0,U,60552,999,10532,.11535545E-3,.131E-4,0
BRO-15,2024-149CP,2026-07-22T03:42:43.209792,14.96231129,.00070318,97.6790,277.8725,341.9882,18.1089,0,U,60553,999,10523,.99791058E-4,.1069E-4,0
UM5-RIBAT,2024-149CQ,2026-07-22T11:12:07.460064,15.01241083,.00005913,97.6590,280.7869,242.2115,117.9049,0,U,60554,999,10548,.15283347E-3,.1904E-4,0
UM5-EOSAT,2024-149CR,2026-07-22T03:43:17.478624,15.01759283,.00087912,97.6777,281.5029,17.0906,343.0613,0,U,60555,999,10546,.19432211E-3,.2472E-4,0
LASARSAT,2024-247Q,2026-07-22T14:39:01.307520,15.48418304,.00085773,44.9743,62.8371,212.1409,147.8959,0,U,62391,999,8880,.69795866E-3,.37731E-3,0
CROCUBE,2024-247T,2026-07-22T07:17:17.252160,15.50606794,.00086917,44.9714,61.2787,216.8409,143.1886,0,U,62394,999,8879,.74884164E-3,.43823E-3,0
TEVEL2-4,2025-052D,2026-07-22T04:24:32.969952,15.35744990,.00028764,97.3852,99.6543,37.6826,322.4619,0,U,63213,999,7548,.6152178E-3,.21346E-3,0
TEVEL2-5,2025-052E,2026-07-21T22:44:39.677280,15.35543714,.0002922,97.3850,99.3550,40.5078,319.6383,0,U,63214,999,7544,.58209566E-3,.20059E-3,0
TEVEL2-6,2025-052F,2026-07-22T13:08:07.820736,15.35532264,.00029206,97.3857,99.9412,41.7305,318.4161,0,U,63215,999,7553,.59746306E-3,.20585E-3,0
TEVEL2-1,2025-052H,2026-07-22T04:45:06.514848,15.34943207,.00036051,97.3828,99.1724,45.0225,315.1310,0,U,63217,999,7546,.59832333E-3,.20232E-3,0
TEVEL2-3,2025-052J,2026-07-22T04:35:25.291680,15.35007108,.00035371,97.3841,99.1918,48.5551,311.5996,0,U,63218,999,7546,.60877449E-3,.20629E-3,0
TEVEL2-2,2025-052K,2026-07-22T06:19:05.593152,15.34957239,.00036751,97.3827,99.2408,45.1461,315.0081,0,U,63219,999,7547,.60329009E-3,.2041E-3,0
TEVEL2-9,2025-052AD,2026-07-21T05:49:15.661632,15.32853308,.00070834,97.3890,97.5180,39.6084,320.5675,0,U,63237,999,7524,.41132929E-3,.12991E-3,0
